[{"OBJECT_NAME":"TIANQI-39","OBJECT_ID":"2026-010C","EPOCH":"2026-03-08T16:50:36.580128","MEAN_MOTION":14.04334884,"ECCENTRICITY":0.00155129,"INCLINATION":44.9813,"RA_OF_ASC_NODE":168.7554,"ARG_OF_PERICENTER":221.5775,"MEAN_ANOMALY":138.3881,"EPHEMERIS_TYPE":0,"CLASSIFICATION_TYPE":"U","NORAD_CAT_ID":67478,"ELEMENT_SET_NO":999,"REV_AT_EPOCH":732,"BSTAR":0.00014701681,"MEAN_MOTION_DOT":1.06e-6,"MEAN_MOTION_DDOT":0},{"OBJECT_NAME":"PEGASUS DEB","OBJECT_ID":"1994-029LK","EPOCH":"2026-03-09T22:18:47.115072","MEAN_MOTION":14.54268919,"ECCENTRICITY":0.03111088,"INCLINATION":81.4299,"RA_OF_ASC_NODE":55.7262,"ARG_OF_PERICENTER":293.7836,"MEAN_ANOMALY":63.1023,"EPHEMERIS_TYPE":0,"CLASSIFICATION_TYPE":"U","NORAD_CAT_ID":24236,"ELEMENT_SET_NO":999,"REV_AT_EPOCH":52042,"BSTAR":0.0019719225,"MEAN_MOTION_DOT":0.00016098,"MEAN_MOTION_DDOT":0}]
